MEAN_MOTION;ECCENTRICITY;INCLINATION;RA_OF_ASC_NODE;ARG_OF_PERICENTER;MEAN_ANOMALY;BSTAR;MEAN_MOTION_DOT;MEAN_MOTION_DDOT;TYPE
14.36824702;0.000325;86.399;83.3413;45.1771;314.969;2.6766E-5;9.9E-7;0;Iridium
14.36824815;0.0003199;86.3991;83.1075;44.1173;316.0279;2.8691E-5;1.05E-6;0;Iridium
14.36824897;0.0003162;86.3991;82.9323;43.4612;316.6834;2.9817E-5;1.08E-6;0;Iridium
14.36825042;0.000311;86.3991;82.6693;42.2251;317.9185;3.1831E-5;1.14E-6;0;Iridium
14.36825068;0.0003102;86.3991;82.6401;42.1671;317.9764;3.2623E-5;1.16E-6;0;Iridium
14.36825297;0.0003016;86.3992;82.2603;40.6516;319.4906;3.4798E-5;1.23E-6;0;Iridium
14.36825457;0.000292;86.3992;81.8805;39.2054;320.9354;3.33E-5;1.18E-6;0;Iridium
14.36825457;0.000292;86.3992;81.8805;39.2054;320.9354;3.33E-5;1.18E-6;0;Iridium
14.36821658;0.0002649;86.3995;81.0352;37.3947;322.7434;2.8614E-5;1.04E-6;0;Iridium
14.36820713;0.0002736;86.3993;80.828;34.4031;325.7343;2.7376E-5;1.01E-6;0;Iridium
14.36820037;0.0002636;86.3994;80.5947;33.0128;327.1233;2.6759E-5;9.9E-7;0;Iridium
14.36820037;0.0002636;86.3994;80.5947;33.0128;327.1233;2.6759E-5;9.9E-7;0;Iridium
14.36820127;0.0002603;86.3994;80.4195;32.3404;327.7952;1.9302E-5;7.7E-7;0;Iridium
14.36819916;0.0002493;86.3996;80.0108;30.5638;329.5704;2.6464E-6;2.8E-7;0;Iridium
14.36819684;0.0002506;86.3994;79.748;26.24;333.8924;-1.4604E-5;-2.3E-7;0;Iridium
14.36819684;0.0002506;86.3994;79.748;26.24;333.8924;-1.4604E-5;-2.3E-7;0;Iridium
14.36819887;0.0002333;86.3997;79.3389;27.3346;332.7973;8.973E-7;2.3E-7;0;Iridium
14.36820025;0.0002289;86.3997;79.1636;26.5053;333.6261;9.4172E-6;4.8E-7;0;Iridium
14.36820105;0.000223;86.3998;78.93;25.2295;334.9011;1.3119E-5;5.9E-7;0;Iridium
14.36820211;0.0002168;86.3998;78.7254;24.4272;335.7028;1.6837E-5;7.0E-7;0;Iridium
14.3682028;0.0002103;86.3998;78.4917;23.4167;336.7125;1.9084E-5;7.6E-7;0;Iridium
14.3682028;0.0002103;86.3998;78.4917;23.4167;336.7125;1.9084E-5;7.6E-7;0;Iridium
14.36820326;0.0002056;86.3999;78.3165;22.698;337.4308;1.9751E-5;7.8E-7;0;Iridium
14.36820458;0.0001987;86.3999;78.0828;21.6594;338.4687;2.3415E-5;8.9E-7;0;Iridium
14.36820544;0.0001934;86.3999;77.9075;20.9888;339.1389;2.5328E-5;9.5E-7;0;Iridium
14.36820676;0.0001883;86.4;77.674;19.512;340.6149;2.8965E-5;1.05E-6;0;Iridium
14.36820768;0.0001825;86.4001;77.4695;18.6333;341.4931;2.9776E-5;1.08E-6;0;Iridium
14.36820768;0.0001763;86.4001;77.2358;17.3765;342.7493;2.6336E-5;9.8E-7;0;Iridium
14.36820768;0.0001763;86.4001;77.2358;17.3765;342.7493;2.6336E-5;9.8E-7;0;Iridium
14.36820807;0.0001716;86.4002;77.0606;16.7038;343.4216;2.515E-5;9.4E-7;0;Iridium
14.36820796;0.0001651;86.4003;76.8269;15.6272;344.4976;2.1172E-5;8.2E-7;0;Iridium
14.36820834;0.0001601;86.4003;76.6517;14.8725;345.2519;2.0384E-5;8.0E-7;0;Iridium
14.36820866;0.000153;86.4004;76.4181;13.4932;346.6305;1.8125E-5;7.3E-7;0;Iridium
14.36820912;0.0001483;86.4004;76.2137;12.4697;347.6536;1.6848E-5;7.0E-7;0;Iridium
14.36820957;0.0001419;86.4005;76.0093;11.3573;348.7656;1.6053E-5;6.7E-7;0;Iridium
14.36820985;0.0001368;86.4006;75.8049;10.3822;349.7403;1.3938E-5;6.1E-7;0;Iridium
14.36821073;0.0001285;86.4007;75.5712;9.6035;350.5187;1.4686E-5;6.3E-7;0;Iridium
14.36821073;0.0001285;86.4007;75.5712;9.6035;350.5187;1.4686E-5;6.3E-7;0;Iridium
14.36821108;0.0001233;86.4008;75.396;8.7505;351.3713;1.3786E-5;6.1E-7;0;Iridium
14.36821251;0.0001179;86.4009;75.1624;6.8991;353.2223;1.6681E-5;6.9E-7;0;Iridium
14.36821342;0.0001117;86.401;74.9581;5.8161;354.3049;1.7438E-5;7.1E-7;0;Iridium
14.36821402;0.0001064;86.4012;74.7538;4.1158;356.0047;1.7794E-5;7.2E-7;0;Iridium
14.36821477;0.0001006;86.4012;74.5493;2.9789;357.1414;1.8152E-5;7.3E-7;0;Iridium
14.36821564;9.27E-5;86.4013;74.3157;1.8122;358.3078;1.9181E-5;7.6E-7;0;Iridium
14.36821564;9.27E-5;86.4013;74.3157;1.8122;358.3078;1.9181E-5;7.6E-7;0;Iridium
14.36821617;8.74E-5;86.4014;74.1405;0.7936;359.3263;1.9169E-5;7.6E-7;0;Iridium
14.36821626;8.65E-5;86.4014;74.1113;0.5696;359.5502;1.8866E-5;7.6E-7;0;Iridium
14.36821878;7.41E-5;86.4015;73.7026;357.5061;2.6132;2.4413E-5;9.2E-7;0;Iridium
14.36821891;7.33E-5;86.4016;73.6734;357.0866;3.0326;2.4564E-5;9.2E-7;0;Iridium
14.36822031;6.85E-5;86.4017;73.4983;355.3535;4.7656;2.8714E-5;1.05E-6;0;Iridium
14.36822136;6.27E-5;86.4017;73.2939;353.3283;6.7906;2.9899E-5;1.08E-6;0;Iridium
14.36822319;5.62E-5;86.4018;73.0604;351.0559;9.0628;3.4934E-5;1.23E-6;0;Iridium
14.36822319;5.62E-5;86.4018;73.0604;351.0559;9.0628;3.4934E-5;1.23E-6;0;Iridium
14.36822442;5.01E-5;86.4019;72.856;348.8572;11.2614;3.6415E-5;1.27E-6;0;Iridium
14.36822575;4.35E-5;86.4019;72.6516;345.3985;14.72;3.9345E-5;1.36E-6;0;Iridium
14.36822689;3.75E-5;86.402;72.4473;341.8777;18.2406;3.9996E-5;1.38E-6;0;Iridium
14.36822798;3.14E-5;86.4021;72.2429;336.0823;24.036;4.1516E-5;1.42E-6;0;Iridium
14.36822891;2.66E-5;86.4021;72.0386;330.2177;29.9005;4.085E-5;1.4E-6;0;Iridium
14.36822904;2.05E-5;86.4022;71.8051;316.8865;43.2316;3.6461E-5;1.27E-6;0;Iridium
14.36822904;2.05E-5;86.4022;71.8051;316.8865;43.2316;3.6461E-5;1.27E-6;0;Iridium
14.36822967;1.65E-5;86.4022;71.6008;303.5991;56.5191;3.4326E-5;1.21E-6;0;Iridium
14.36823099;1.38E-5;86.4024;71.192;248.9988;111.1195;3.1243E-5;1.12E-6;0;Iridium
14.36823151;1.77E-5;86.4025;70.9877;227.7204;132.3978;2.9175E-5;1.06E-6;0;Iridium
14.36823244;2.17E-5;86.4026;70.7835;214.8869;145.2314;2.8449E-5;1.04E-6;0;Iridium
14.36823303;2.73E-5;86.4027;70.55;205.652;154.4664;2.6115E-5;9.7E-7;0;Iridium
14.36823303;2.73E-5;86.4027;70.55;205.652;154.4664;2.6115E-5;9.7E-7;0;Iridium
14.36823365;3.25E-5;86.4028;70.3458;198.7268;161.3917;2.3888E-5;9.0E-7;0;Iridium
14.3682341;3.83E-5;86.4029;70.1415;194.3252;165.7934;2.2021E-5;8.5E-7;0;Iridium
14.36823466;4.41E-5;86.403;69.9372;189.9982;170.1207;1.9903E-5;7.9E-7;0;Iridium
14.36823614;5.68E-5;86.4031;69.5286;184.3895;175.7297;1.8856E-5;7.6E-7;0;Iridium
14.36823784;6.75E-5;86.4033;69.1493;181.4083;178.7112;2.026E-5;8.0E-7;0;Iridium
14.36823856;7.5E-5;86.4034;68.8867;179.0778;181.042;1.9406E-5;7.7E-7;0;Iridium
14.36823856;7.5E-5;86.4034;68.8867;179.0778;181.042;1.9406E-5;7.7E-7;0;Iridium
14.36823936;8.1E-5;86.4035;68.6824;177.2017;182.9185;1.998E-5;7.9E-7;0;Iridium
14.3682399;8.72E-5;86.4036;68.4782;175.5289;184.5916;2.0393E-5;8.0E-7;0;Iridium
14.36824093;9.5E-5;86.4037;68.2448;173.8334;186.2875;2.195E-5;8.5E-7;0;Iridium
14.36824157;9.98E-5;86.4038;68.0697;173.028;187.0932;2.3014E-5;8.8E-7;0;Iridium
14.36824242;0.0001062;86.4039;67.8363;171.5811;188.5404;2.3846E-5;9.0E-7;0;Iridium
14.36824266;0.0001116;86.404;67.6321;170.3431;189.7788;2.3243E-5;8.8E-7;0;Iridium
14.36824266;0.0001116;86.404;67.6321;170.3431;189.7788;2.3243E-5;8.8E-7;0;Iridium
14.36824331;0.0001176;86.404;67.4278;169.0712;191.0511;2.351E-5;8.9E-7;0;Iridium
14.3682439;0.0001234;86.4042;67.2236;167.9843;192.1384;2.4376E-5;9.2E-7;0;Iridium
14.3682439;0.0001234;86.4042;67.2236;167.9843;192.1384;2.4376E-5;9.2E-7;0;Iridium
14.36824459;0.0001307;86.4042;66.9902;166.6647;193.4585;2.4823E-5;9.3E-7;0;Iridium
14.36824502;0.0001357;86.4043;66.8152;165.991;194.1325;2.5111E-5;9.4E-7;0;Iridium
14.36824538;0.0001426;86.4044;66.5819;164.8258;195.2982;2.3487E-5;8.9E-7;0;Iridium
14.36824565;0.000147;86.4044;66.4069;164.0833;196.041;2.3173E-5;8.8E-7;0;Iridium
14.36824617;0.0001538;86.4045;66.1735;162.6979;197.4271;2.1741E-5;8.4E-7;0;Iridium
14.36824644;0.0001608;86.4046;65.94;161.4678;198.6578;2.0371E-5;8.0E-7;0;Iridium
14.36824644;0.0001608;86.4046;65.94;161.4678;198.6578;2.0371E-5;8.0E-7;0;Iridium
14.36824666;0.0001667;86.4046;65.7359;160.3484;199.7777;1.8227E-5;7.4E-7;0;Iridium
14.3682474;0.0001726;86.4046;65.5316;159.4026;200.7241;1.8777E-5;7.5E-7;0;Iridium
14.36824801;0.0001781;86.4047;65.3275;158.4816;201.6456;1.8275E-5;7.4E-7;0;Iridium
14.3682485;0.0001826;86.4047;65.1233;157.4492;202.6786;1.7629E-5;7.2E-7;0;Iridium
14.368249;0.0001884;86.4048;64.9191;156.4871;203.6412;1.6378E-5;6.8E-7;0;Iridium
14.36825037;0.0001993;86.4049;64.5399;154.6104;205.5192;1.7294E-5;7.1E-7;0;Iridium
14.36825037;0.0002009;86.405;64.4816;154.3238;205.8059;1.6112E-5;6.7E-7;0;Iridium
14.36825139;0.0002061;86.405;64.3066;153.5992;206.5311;1.8151E-5;7.3E-7;0;Iridium
14.36825225;0.0002135;86.4051;64.0732;152.571;207.56;1.8238E-5;7.4E-7;0;Iridium
14.36825306;0.0002181;86.4052;63.869;151.7399;208.3917;1.9144E-5;7.6E-7;0;Iridium
14.36825306;0.0002181;86.4052;63.869;151.7399;208.3917;1.9144E-5;7.6E-7;0;Iridium
14.36825358;0.0002237;86.4053;63.6649;150.8331;209.2992;1.7996E-5;7.3E-7;0;Iridium
14.3682547;0.000229;86.4053;63.4607;149.8948;210.2382;2.105E-5;8.2E-7;0;Iridium
14.36825493;0.0002348;86.4054;63.2566;148.8423;211.2914;1.8442E-5;7.4E-7;0;Iridium
14.36825573;0.0002399;86.4055;63.0524;147.9965;212.1378;2.0051E-5;7.9E-7;0;Iridium
14.36825606;0.0002462;86.4056;62.8191;146.9815;213.1537;1.8432E-5;7.4E-7;0;Iridium
14.36825653;0.0002503;86.4056;62.6441;146.3235;213.8122;1.9132E-5;7.6E-7;0;Iridium
14.36825653;0.0002503;86.4056;62.6441;146.3235;213.8122;1.9132E-5;7.6E-7;0;Iridium
14.36825691;0.0002561;86.4057;62.4108;145.3363;214.8001;1.8293E-5;7.4E-7;0;Iridium
14.3682575;0.0002606;86.4057;62.2067;144.3914;215.7458;1.9282E-5;7.7E-7;0;Iridium
14.3682575;0.0002606;86.4057;62.2067;144.3914;215.7458;1.9282E-5;7.7E-7;0;Iridium
14.36825789;0.0002666;86.4057;62.0025;143.4758;216.6621;1.9039E-5;7.6E-7;0;Iridium
14.3682582;0.0002712;86.4058;61.7984;142.4954;217.6432;1.8899E-5;7.6E-7;0;Iridium
14.36825853;0.0002782;86.4059;61.5651;141.4595;218.6802;1.8618E-5;7.5E-7;0;Iridium
14.36825943;0.0002811;86.4059;61.3901;140.7838;219.3564;2.0962E-5;8.2E-7;0;Iridium
14.36825999;0.0002865;86.4059;61.1568;139.7675;220.3735;2.092E-5;8.2E-7;0;Iridium
14.3682613;0.0002976;86.406;60.7486;138.0005;222.1421;2.2308E-5;8.6E-7;0;Iridium
14.36826198;0.0003037;86.406;60.5153;137.0257;223.1178;2.2962E-5;8.8E-7;0;Iridium
14.36826359;0.0003138;86.4061;60.1071;135.3473;224.7977;2.377E-5;9.0E-7;0;Iridium
14.3682643;0.000318;86.4061;59.903;134.5351;225.6106;2.3238E-5;8.8E-7;0;Iridium
14.3682653;0.000322;86.4062;59.699;133.6819;226.4645;2.4305E-5;9.2E-7;0;Iridium
